$GPGGA,044857.000,2300.0000,S,15000.0000,E,1,12,0.7,13.9,M,48.6,M,,0000*7F
$GPGSA,A,3,,,,,,,,,,,,,1.8,0.7,1.6*34
$GPGSV,4,1,16,00,00,000,00,00,00,000,00,00,00,000,00,00,00,000,00*76
$GPGSV,4,2,16,00,00,000,00,00,00,000,00,00,00,000,00,00,00,000,00*77
$GPGSV,4,3,16,00,00,000,00,00,00,000,00,00,00,000,00,00,00,000,00*71
$GPGSV,4,4,16,00,00,000,00,00,00,000,00,00,00,000,00,00,00,000,00*77
$GSENSORD,0.250,0.060,-0.060
$GPRMC,044858.000,A,2300.0000,S,15000.0000,E,0.00,0.00,250626,,,A*72
$GPGGA,044858.000,2300.0000,S,15000.0000,E,1,12,0.7,13.9,M,48.6,M,,0000*70
$GPGSA,A,3,,,,,,,,,,,,,1.6,0.7,1.4*38
$GPGSV,4,1,16,00,00,000,00,00,00,000,00,00,00,000,00,00,00,000,00*7D
$GPGSV,4,2,16,00,00,000,00,00,00,000,00,00,00,000,00,00,00,000,00*75
$GPGSV,4,3,16,00,00,000,00,00,00,000,00,00,00,000,00,00,00,000,00*7E
$GPGSV,4,4,16,00,00,000,00,00,00,000,00,00,00,000,00,00,00,000,00*76
$GSENSORD,0.310,0.060,-0.120
$GPRMC,044859.000,A,2300.0000,S,15000.0000,E,0.00,0.00,250626,,,A*73
$GPGGA,044859.000,2300.0000,S,15000.0000,E,1,12,0.7,13.9,M,48.6,M,,0000*71
$GPGSA,A,3,,,,,,,,,,,,,1.8,0.7,1.6*34
$GPGSV,4,1,16,00,00,000,00,00,00,000,00,00,00,000,00,00,00,000,00*73
$GPGSV,4,2,16,00,00,000,00,00,00,000,00,00,00,000,00,00,00,000,00*71
$GPGSV,4,3,16,00,00,000,00,00,00,000,00,00,00,000,00,00,00,000,00*7F
$GPGSV,4,4,16,00,00,000,00,00,00,000,00,00,00,000,00,00,00,000,00*70
$GSENSORD,0.310,0.120,-0.120
$GPRMC,044900.000,A,2300.0000,S,15000.0000,E,0.00,0.00,250626,,,A*7E
$GPGGA,044900.000,2300.0000,S,15000.0000,E,1,12,0.7,13.9,M,48.6,M,,0000*7C
$GPGSA,A,3,,,,,,,,,,,,,1.6,0.7,1.4*38
$GPGSV,4,1,16,00,00,000,00,00,00,000,00,00,00,000,00,00,00,000,00*7B
$GPGSV,4,2,16,00,00,000,00,00,00,000,00,00,00,000,00,00,00,000,00*7F
$GPGSV,4,3,16,00,00,000,00,00,00,000,00,00,00,000,00,00,00,000,00*73
$GPGSV,4,4,16,00,00,000,00,00,00,000,00,00,00,000,00,00,00,000,00*78
$GSENSORD,0.250,0.120,-0.060
$GPRMC,044901.000,A,2300.0000,S,15000.0000,E,2.59,127.50,250626,,,A*7E
$GPGGA,044901.000,2300.0000,S,15000.0000,E,1,12,0.7,15.0,M,48.6,M,,0000*7C
$GPGSA,A,3,,,,,,,,,,,,,1.6,0.7,1.4*38
$GPGSV,4,1,16,00,00,000,00,00,00,000,00,00,00,000,00,00,00,000,00*7B
$GPGSV,4,2,16,00,00,000,00,00,00,000,00,00,00,000,00,00,00,000,00*7E
$GPGSV,4,3,16,00,00,000,00,00,00,000,00,00,00,000,00,00,00,000,00*7B
$GPGSV,4,4,16,00,00,000,,00,00,000,00,00,00,000,00,00,00,000,00*7A
$GSENSORD,0.250,0.000,-0.060
$GPRMC,044902.000,A,2300.0000,S,15000.0000,E,2.53,152.79,250626,,,A*79
$GPGGA,044902.000,2300.0000,S,15000.0000,E,1,12,0.7,15.3,M,48.6,M,,0000*7B
$GPGSA,A,3,,,,,,,,,,,,,1.6,0.7,1.4*38
$GPGSV,4,1,16,00,00,000,00,00,00,000,00,00,00,000,00,00,00,000,00*77
$GPGSV,4,2,16,00,00,000,00,00,00,000,00,00,00,000,00,00,00,000,00*70
$GPGSV,4,3,16,00,00,000,00,00,00,000,00,00,00,000,00,00,00,000,00*78
$GPGSV,4,4,16,00,00,000,,00,00,000,00,00,00,000,00,00,00,000,00*77
$GSENSORD,0.180,-0.060,-0.060
$GPRMC,044903.000,A,2300.0000,S,15000.0000,E,2.26,169.12,250626,,,A*77
$GPGGA,044903.000,2300.0000,S,15000.0000,E,1,12,0.7,15.3,M,48.6,M,,0000*72
$GPGSA,A,3,,,,,,,,,,,,,1.8,0.7,1.6*34
$GPGSV,4,1,16,00,00,000,00,00,00,000,00,00,00,000,00,00,00,000,00*7E
$GPGSV,4,2,16,00,00,000,00,00,00,000,00,00,00,000,00,00,00,000,00*75
$GPGSV,4,3,16,00,00,000,00,00,00,000,00,00,00,000,00,00,00,000,00*7C
$GPGSV,4,4,16,00,00,000,,00,00,000,00,00,00,000,00,00,00,000,00*7B
$GSENSORD,0.310,0.060,-0.120
$GPRMC,044904.000,A,2300.0000,S,15000.0000,E,0.09,169.12,250626,,,A*70
$GPGGA,044904.000,2300.0000,S,15000.0000,E,1,12,0.7,15.4,M,48.6,M,,0000*7D
$GPGSA,A,3,,,,,,,,,,,,,1.8,0.7,1.6*34
$GPGSV,4,1,16,00,00,000,00,00,00,000,00,00,00,000,00,00,00,000,00*73
$GPGSV,4,2,16,00,00,000,00,00,00,000,00,00,00,000,00,00,00,000,00*76
