$GNRMC,051805.000,A,5000.0000,N,900.0000,E,27.76,168.43,190826,,,D,V*38
$GNGGA,051805.000,5000.0000,N,900.0000,E,2,22,0.61,138.4,M,48.0,M,,*7B
$GNGSA,A,3,,,,,,,,,,,,,,0.61,0.71,1*07
$GNGSA,A,3,,,,,,,,,,,,,,0.61,0.71,2*08
$GNGSA,A,3,,,,,,,,,,,,,,0.61,0.71,3*02
$GPGSV,3,1,11,00,00,000,00,00,00,000,00,00,00,000,00,00,00,000,00,00*69
$GPGSV,3,2,11,00,00,000,00,00,00,000,00,00,00,000,00,00,00,000,00,00*64
$GPGSV,3,3,11,00,00,000,00,00,00,000,,00,00,000,,00*59
$GLGSV,3,1,09,00,00,000,00,00,00,000,00,00,00,000,00,00,00,000,00,00*7E
$GLGSV,3,2,09,00,00,000,00,00,00,000,00,00,00,000,00,00,00,000,00,00*76
$GLGSV,3,3,09,00,00,000,00,00*44
$GAGSV,2,1,08,00,00,000,00,00,00,000,00,00,00,000,00,00,00,000,00,00*74
$GAGSV,2,2,08,00,00,000,,00,00,000,00,00,00,000,00,00,00,000,,00*70
$GSENSORD,0.021,0.092,-0.015,[-0.724,-0.066,0.617],0.096, 1447001
$GNRMC,051806.000,A,5000.0000,N,900.0000,E,28.55,160.57,190826,,,D,V*36
$GNGGA,051806.000,5000.0000,N,900.0000,E,2,22,0.64,138.4,M,48.0,M,,*73
$GNGSA,A,3,,,,,,,,,,,,,,0.64,1.02,1*09
$GNGSA,A,3,,,,,,,,,,,,,,0.64,1.02,2*06
$GNGSA,A,3,,,,,,,,,,,,,,0.64,1.02,3*0C
$GPGSV,3,1,11,00,00,000,00,00,00,000,00,00,00,000,00,00,00,000,00,00*6B
$GPGSV,3,2,11,00,00,000,00,00,00,000,00,00,00,000,00,00,00,000,00,00*6A
$GPGSV,3,3,11,00,00,000,00,00,00,000,,00,00,000,,00*59
$GLGSV,3,1,09,00,00,000,00,00,00,000,00,00,00,000,00,00,00,000,00,00*7E
$GLGSV,3,2,09,00,00,000,00,00,00,000,00,00,00,000,00,00,00,000,00,00*75
$GLGSV,3,3,09,00,00,000,00,00*44
$GAGSV,2,1,08,00,00,000,00,00,00,000,00,00,00,000,00,00,00,000,00,00*7F
$GAGSV,2,2,08,00,00,000,,00,00,000,00,00,00,000,00,00,00,000,,00*7E
$GSENSORD,-0.034,-0.069,0.000,[-0.774,-0.014,0.610],0.077, 1448001
$GNRMC,051807.000,A,5000.0000,N,900.0000,E,28.57,157.33,190826,,,D,V*3D
$GNGGA,051807.000,5000.0000,N,900.0000,E,2,22,0.64,138.2,M,48.0,M,,*7A
$GNGSA,A,3,,,,,,,,,,,,,,0.64,1.02,1*09
$GNGSA,A,3,,,,,,,,,,,,,,0.64,1.02,2*06
$GNGSA,A,3,,,,,,,,,,,,,,0.64,1.02,3*0C
$GPGSV,3,1,11,00,00,000,00,00,00,000,00,00,00,000,00,00,00,000,00,00*68
$GPGSV,3,2,11,00,00,000,00,00,00,000,00,00,00,000,00,00,00,000,00,00*63
$GPGSV,3,3,11,00,00,000,00,00,00,000,,00,00,000,,00*5B
$GLGSV,3,1,09,00,00,000,00,00,00,000,00,00,00,000,00,00,00,000,00,00*7F
$GLGSV,3,2,09,00,00,000,00,00,00,000,00,00,00,000,00,00,00,000,00,00*76
$GLGSV,3,3,09,00,00,000,00,00*44
$GAGSV,2,1,08,00,00,000,00,00,00,000,00,00,00,000,00,00,00,000,00,00*7E
$GAGSV,2,2,08,00,00,000,,00,00,000,00,00,00,000,00,00,00,000,,00*7D
$GSENSORD,-0.013,0.046,-0.021,[-0.744,0.084,0.581],0.052, 1449001
$GNRMC,051808.000,A,5000.0000,N,900.0000,E,28.61,156.47,190826,,,D,V*34
$GNGGA,051808.000,5000.0000,N,900.0000,E,2,22,0.64,137.0,M,48.0,M,,*79
$GNGSA,A,3,,,,,,,,,,,,,,0.64,1.02,1*09
$GNGSA,A,3,,,,,,,,,,,,,,0.64,1.02,2*06
$GNGSA,A,3,,,,,,,,,,,,,,0.64,1.02,3*0C
$GPGSV,3,1,11,00,00,000,00,00,00,000,00,00,00,000,00,00,00,000,00,00*6F
$GPGSV,3,2,11,00,00,000,00,00,00,000,00,00,00,000,00,00,00,000,00,00*68
$GPGSV,3,3,11,00,00,000,00,00,00,000,,00,00,000,,00*51
$GLGSV,3,1,09,00,00,000,00,00,00,000,00,00,00,000,00,00,00,000,00,00*7F
$GLGSV,3,2,09,00,00,000,00,00,00,000,00,00,00,000,00,00,00,000,00,00*77
$GLGSV,3,3,09,00,00,000,00,00*45
$GAGSV,2,1,08,00,00,000,00,00,00,000,00,00,00,000,00,00,00,000,00,00*7E
$GAGSV,2,2,08,00,00,000,,00,00,000,00,00,00,000,00,00,00,000,,00*7C
$GSENSORD,0.006,0.037,0.002,[-0.735,0.092,0.615],0.038, 1450001
$GNRMC,051809.000,A,5000.0000,N,900.0000,E,28.78,156.21,190826,,,D,V*3A
$GNGGA,051809.000,5000.0000,N,900.0000,E,2,21,0.65,136.3,M,48.0,M,,*7F
$GNGSA,A,3,,,,,,,,,,,,,,0.65,1.02,1*08
$GNGSA,A,3,,,,,,,,,,,,,,0.65,1.02,2*06
