$GPSCAMTIME 20261006214456
$GPRMC,184318.11,V,4500.0000,N,3400.0000,E,0.540,336.277,061026,,E,N*14
$GPGGA,184318.11,4500.0000,N,3400.0000,E,0,,2.6,298.451,M,,M,,*65
$GPRMC,184320.00,V,4500.0000,N,3400.0000,E,0.921,334.669,061026,,E,N*16
$GPGGA,184320.00,4500.0000,N,3400.0000,E,0,,2.6,280.570,M,,M,,*6E
$GPRMC,184321.00,V,4500.0000,N,3400.0000,E,0.921,334.669,061026,,E,N*17
$GPGGA,184321.00,4500.0000,N,3400.0000,E,0,,2.6,280.570,M,,M,,*6F
$GPRMC,184322.00,V,4500.0000,N,3400.0000,E,0.921,334.669,061026,,E,N*14
$GPGGA,184322.00,4500.0000,N,3400.0000,E,0,,2.6,280.570,M,,M,,*6C
$GPRMC,184323.00,V,4500.0000,N,3400.0000,E,0.921,334.669,061026,,E,N*15
$GPGGA,184323.00,4500.0000,N,3400.0000,E,0,,2.6,280.570,M,,M,,*6D
$GPRMC,184324.00,V,4500.0000,N,3400.0000,E,0.921,334.669,061026,,E,N*12
$GPGGA,184324.00,4500.0000,N,3400.0000,E,0,,2.6,280.570,M,,M,,*6A
$GPRMC,184325.00,V,4500.0000,N,3400.0000,E,0.921,334.669,061026,,E,N*13
$GPGGA,184325.00,4500.0000,N,3400.0000,E,0,,2.6,280.570,M,,M,,*6B
$GPRMC,184326.00,V,4500.0000,N,3400.0000,E,0.921,334.669,061026,,E,N*10
$GPGGA,184326.00,4500.0000,N,3400.0000,E,0,,2.6,280.570,M,,M,,*68
$GPRMC,184327.00,V,4500.0000,N,3400.0000,E,0.921,334.669,061026,,E,N*11
$GPGGA,184327.00,4500.0000,N,3400.0000,E,0,,2.6,280.570,M,,M,,*69
$GPRMC,184328.00,V,4500.0000,N,3400.0000,E,0.921,334.669,061026,,E,N*1E
$GPGGA,184328.00,4500.0000,N,3400.0000,E,0,,2.6,280.570,M,,M,,*66
$GPRMC,184329.00,V,4500.0000,N,3400.0000,E,0.921,334.669,061026,,E,N*1F
$GPGGA,184329.00,4500.0000,N,3400.0000,E,0,,2.6,280.570,M,,M,,*67
$GPRMC,184330.00,V,4500.0000,N,3400.0000,E,0.921,334.669,061026,,E,N*17
$GPGGA,184330.00,4500.0000,N,3400.0000,E,0,,2.6,280.570,M,,M,,*6F
$GPRMC,184331.00,V,4500.0000,N,3400.0000,E,0.921,334.669,061026,,E,N*16
$GPGGA,184331.00,4500.0000,N,3400.0000,E,0,,2.6,280.570,M,,M,,*6E
$GPRMC,184332.00,V,4500.0000,N,3400.0000,E,0.921,334.669,061026,,E,N*15
$GPGGA,184332.00,4500.0000,N,3400.0000,E,0,,2.6,280.570,M,,M,,*6D
$GPRMC,184333.00,V,4500.0000,N,3400.0000,E,0.921,334.669,061026,,E,N*14
$GPGGA,184333.00,4500.0000,N,3400.0000,E,0,,2.6,280.570,M,,M,,*6C
$GPRMC,184334.00,V,4500.0000,N,3400.0000,E,0.921,334.669,061026,,E,N*13
$GPGGA,184334.00,4500.0000,N,3400.0000,E,0,,2.6,280.570,M,,M,,*6B
$GPRMC,184335.00,V,4500.0000,N,3400.0000,E,0.921,334.669,061026,,E,N*12
$GPGGA,184335.00,4500.0000,N,3400.0000,E,0,,2.6,280.570,M,,M,,*6A
$GPRMC,184336.00,V,4500.0000,N,3400.0000,E,0.921,334.669,061026,,E,N*11
$GPGGA,184336.00,4500.0000,N,3400.0000,E,0,,2.6,280.570,M,,M,,*69
$GPRMC,184337.00,V,4500.0000,N,3400.0000,E,0.921,334.669,061026,,E,N*10
$GPGGA,184337.00,4500.0000,N,3400.0000,E,0,,2.6,280.570,M,,M,,*68
$GPRMC,184338.00,V,4500.0000,N,3400.0000,E,0.921,334.669,061026,,E,N*1F
$GPGGA,184338.00,4500.0000,N,3400.0000,E,0,,2.6,280.570,M,,M,,*67
$GPRMC,184339.00,V,4500.0000,N,3400.0000,E,0.921,334.669,061026,,E,N*1E
$GPGGA,184339.00,4500.0000,N,3400.0000,E,0,,2.6,280.570,M,,M,,*66
$GPRMC,184340.00,V,4500.0000,N,3400.0000,E,0.921,334.669,061026,,E,N*10
$GPGGA,184340.00,4500.0000,N,3400.0000,E,0,,2.6,280.570,M,,M,,*68
$GPRMC,184341.00,V,4500.0000,N,3400.0000,E,0.921,334.669,061026,,E,N*11
$GPGGA,184341.00,4500.0000,N,3400.0000,E,0,,2.6,280.570,M,,M,,*69
$GPRMC,184342.00,V,4500.0000,N,3400.0000,E,0.921,334.669,061026,,E,N*12
$GPGGA,184342.00,4500.0000,N,3400.0000,E,0,,2.6,280.570,M,,M,,*6A
$GPRMC,184343.00,V,4500.0000,N,3400.0000,E,0.921,334.669,061026,,E,N*13
$GPGGA,184343.00,4500.0000,N,3400.0000,E,0,,2.6,280.570,M,,M,,*6B
$GPRMC,184344.00,V,4500.0000,N,3400.0000,E,0.921,334.669,061026,,E,N*14
$GPGGA,184344.00,4500.0000,N,3400.0000,E,0,,2.6,280.570,M,,M,,*6C
$GPRMC,184345.00,V,4500.0000,N,3400.0000,E,0.921,334.669,061026,,E,N*15
$GPGGA,184345.00,4500.0000,N,3400.0000,E,0,,2.6,280.570,M,,M,,*6D
$GPRMC,184346.00,V,4500.0000,N,3400.0000,E,0.921,334.669,061026,,E,N*16
$GPGGA,184346.00,4500.0000,N,3400.0000,E,0,,2.6,280.570,M,,M,,*6E
$GPRMC,184347.00,V,4500.0000,N,3400.0000,E,0.921,334.669,061026,,E,N*17
$GPGGA,184347.00,4500.0000,N,3400.0000,E,0,,2.6,280.570,M,,M,,*6F
$GPRMC,184349.00,A,4500.0000,N,3400.0000,E,0.265,42.985,061026,,E,A*35
$GPGGA,184349.00,4500.0000,N,3400.0000,E,1,6,2.6,265.875,M,,M,,*55
$GSENSORSTARTTIME 20261006214453
$GSENSORDATAFREQUENCY 15 v2.1
$GSENSOR,-1028,31,-767,1791312293646
$GSENSOR,-1029,33,-769,1791312293711
$GSENSOR,-1028,31,-765,1791312293775
$GSENSOR,-1024,34,-769,1791312293840
$GSENSOR,-1026,30,-765,1791312293905
$GSENSOR,-1027,34,-764,1791312293969
$GSENSOR,-1029,31,-767,1791312294034
$GSENSOR,-1028,35,-768,1791312294098
$GSENSOR,-1031,30,-765,1791312294163
$GSENSOR,-1028,32,-766,1791312294228
$GSENSOR,-1029,31,-766,1791312294292
$GSENSOR,-1024,33,-767,1791312294357
$GSENSOR,-1026,30,-767,1791312294422
$GSENSOR,-1027,33,-765,1791312294486
$GSENSOR,-1028,32,-767,1791312294551
$GSENSOR,-1025,31,-765,1791312294616
$GSENSOR,-1025,33,-768,1791312294681
$GSENSOR,-1026,34,-765,1791312294746
$GSENSOR,-1026,30,-762,1791312294810
$GSENSOR,-1026,35,-765,1791312294876
$GSENSOR,-1026,29,-765,1791312294941
$GSENSOR,-1026,33,-763,1791312295005
$GSENSOR,-1029,30,-763,1791312295070
$GSENSOR,-1026,35,-766,1791312295135
$GSENSOR,-1027,31,-763,1791312295200
$GSENSOR,-1028,33,-762,1791312295264
$GSENSOR,-1031,30,-764,1791312295329
$GSENSOR,-1028,31,-763,1791312295394
$GSENSOR,-1028,30,-765,1791312295459
$GSENSOR,-1026,32,-765,1791312295524
$GSENSOR,-1028,32,-765,1791312295588
$GSENSOR,-1026,33,-764,1791312295654
$GSENSOR,-1027,32,-764,1791312295721
$GSENSOR,-1028,29,-765,1791312295787
$GSENSOR,-1028,32,-764,1791312295851
$GSENSOR,-1029,29,-762,1791312295916
$GSENSOR,-1028,28,-765,1791312295981
$GSENSOR,-1027,35,-767,1791312296045
$GSENSOR,-1029,30,-763,1791312296110
$GSENSOR,-1027,34,-766,1791312296175
$GSENSOR,-1027,31,-766,1791312296239
$GSENSOR,-1025,31,-765,1791312296304
$GSENSOR,-1027,31,-765,1791312296368
$GSENSOR,-1027,30,-768,1791312296433
$GSENSOR,-1028,32,-769,1791312296497
$GSENSOR,-1028,29,-765,1791312296562
$GSENSOR,-1024,31,-765,1791312296627
$GSENSOR,-1028,27,-768,1791312296692
$GSENSOR,-1054,-4,-770,1791312296756
$GSENSOR,-1057,-1,-756,1791312296821
$GSENSOR,-1030,13,-760,1791312296886
$GSENSOR,-1022,24,-764,1791312296951
$GSENSOR,-1027,38,-769,1791312297016
$GSENSOR,-1029,37,-765,1791312297081
$GSENSOR,-1029,34,-764,1791312297146
$GSENSOR,-1029,25,-762,1791312297211
$GSENSOR,-1025,30,-766,1791312297276
$GSENSOR,-1028,34,-764,1791312297343
$GSENSOR,-1027,36,-764,1791312297410
$GSENSORENDTIME 20261006214553
$GSENSOR,-1060,102,-527,1791289035573
$GSENSOR,-1066,94,-501,1791289035638
$GSENSOR,-1062,102,-490,1791289035702
$GSENSOR,-1040,100,-477,1791289035767
$GSENSOR,-1041,110,-462,1791289035832
$GSENSOR,-1046,83,-453,1791289035896
$GSENSOR,-1030,99,-444,1791289035961
$GSENSOR,-1053,88,-437,1791289036025
$GSENSOR,-1053,93,-432,1791289036090
$GSENSOR,-1032,99,-409,1791289036154
$GSENSOR,-1069,92,-423,1791289036219
$GSENSOR,-1060,105,-467,1791289036284
$GSENSOR,-1043,120,-547,1791289036348
$GSENSOR,-1049,120,-603,1791289036414
$GSENSOR,-1037,119,-644,1791289036478
$GSENSOR,-1022,133,-657,1791289036543
$GSENSOR,-1009,145,-653,1791289036608
$GSENSOR,-1008,142,-659,1791289036673
$GSENSOR,-1011,160,-668,1791289036738
$GSENSOR,-1028,157,-694,1791289036802
$GSENSOR,-1039,144,-709,1791289036867
$GSENSOR,-1028,175,-726,1791289036931
$GSENSOR,-1012,193,-749,1791289036998
$GSENSORENDTIME 20261006151717
$GSENSOR,-1077,127,-837,1789302634750
$GSENSOR,-1033,163,-828,1789302634816
$GSENSORENDTIME 20260913153034
$GSENSOR,-1028,3,-786,1787916732941
$GSENSOR,-1031,0,-788,1787916733006
$GSENSOR,-1032,0,-779,1787916733071
$GSENSOR,-1035,-3,-774,1787916733135
$GSENSORENDTIME 20260828143213
$GSENSOR,-1010,8,-902,1784627936708
$GSENSORENDTIME 20260721125856
$GSENSOR,-998,192,-1325,1784625251111
$GSENSOR,-1011,190,-1311,1784625251176
$GSENSOR,-1008,161,-1345,1784625251243
$GSENSOR,-1018,160,-1353,1784625251307
$GSENSOR,-1020,158,-1339,1784625251372
$GSENSOR,-1015,148,-1340,1784625251436
$GSENSOR,-1016,150,-1340,1784625251501
$GSENSOR,-1014,150,-1350,1784625251565
$GSENSOR,-1010,147,-1349,1784625251630
$GSENSOR,-996,145,-1348,1784625251695
$GSENSOR,-993,135,-1343,1784625251759
$GSENSOR,-991,126,-1344,1784625251824
$GSENSOR,-1008,111,-1337,1784625251889
$GSENSOR,-1014,110,-1332,1784625251953
$GSENSORENDTIME 20260721121412
$GSENSORENDTIME 20260715120329
