$GPSCAMTIME 20260913141342
$GPRMC,120309.00,A,4500.0000,N,3400.0000,E,68.413,229.401,250625,,E,A*39
$GPGGA,120309.00,4500.0000,N,3400.0000,E,1,5,2.7,657.975,M,,M,,*5D
$GPRMC,120310.00,A,4500.0000,N,3400.0000,E,60.362,228.245,250625,,E,A*38
$GPGGA,120310.00,4500.0000,N,3400.0000,E,1,7,1.1,659.230,M,,M,,*51
$GPRMC,120311.00,A,4500.0000,N,3400.0000,E,52.921,226.614,250625,,E,A*39
$GPGGA,120311.00,4500.0000,N,3400.0000,E,1,6,3.1,661.466,M,,M,,*5F
$GPRMC,120312.00,A,4500.0000,N,3400.0000,E,45.905,225.438,250625,,E,A*37
$GPGGA,120312.00,4500.0000,N,3400.0000,E,1,4,18.7,662.847,M,,M,,*6C
$GPRMC,120313.00,A,4500.0000,N,3400.0000,E,42.415,224.805,250625,,E,A*38
$GPGGA,120313.00,4500.0000,N,3400.0000,E,1,5,1.2,664.473,M,,M,,*5A
$GPRMC,120314.00,A,4500.0000,N,3400.0000,E,39.653,225.483,250625,,E,A*33
$GPGGA,120314.00,4500.0000,N,3400.0000,E,1,10,0.9,665.964,M,,M,,*6A
$GPRMC,120315.00,A,4500.0000,N,3400.0000,E,37.112,225.353,250625,,E,A*3F
$GPGGA,120315.00,4500.0000,N,3400.0000,E,1,8,1.6,667.234,M,,M,,*5B
$GPRMC,120316.00,A,4500.0000,N,3400.0000,E,35.085,224.938,250625,,E,A*37
$GPGGA,120316.00,4500.0000,N,3400.0000,E,1,7,1.9,667.963,M,,M,,*51
$GPRMC,120317.00,A,4500.0000,N,3400.0000,E,33.666,226.129,250625,,E,A*35
$GPGGA,120317.00,4500.0000,N,3400.0000,E,1,7,1.9,667.944,M,,M,,*51
$GPRMC,120318.00,A,4500.0000,N,3400.0000,E,29.224,225.123,250625,,E,A*34
$GPGGA,120318.00,4500.0000,N,3400.0000,E,1,8,1.6,668.877,M,,M,,*5E
$GPRMC,120319.00,A,4500.0000,N,3400.0000,E,28.543,225.217,250625,,E,A*38
$GPGGA,120319.00,4500.0000,N,3400.0000,E,1,8,1.6,669.172,M,,M,,*5C
$GPRMC,120320.00,A,4500.0000,N,3400.0000,E,29.220,227.773,250625,,E,A*38
$GPGGA,120320.00,4500.0000,N,3400.0000,E,1,5,5.5,669.505,M,,M,,*54
$GPRMC,120321.00,V,4500.0000,N,3400.0000,E,29.220,227.773,250625,,E,N*21
$GPGGA,120321.00,4500.0000,N,3400.0000,E,0,,5.5,669.505,M,,M,,*61
$GPRMC,120322.00,V,4500.0000,N,3400.0000,E,29.220,227.773,250625,,E,N*22
$GPGGA,120322.00,4500.0000,N,3400.0000,E,0,,5.5,669.505,M,,M,,*62
$GPRMC,120323.00,V,4500.0000,N,3400.0000,E,29.220,227.773,250625,,E,N*23
$GPGGA,120323.00,4500.0000,N,3400.0000,E,0,,5.5,669.505,M,,M,,*63
$GPRMC,120324.00,V,4500.0000,N,3400.0000,E,29.220,227.773,250625,,E,N*24
$GPGGA,120324.00,4500.0000,N,3400.0000,E,0,,5.5,669.505,M,,M,,*64
$GPRMC,120325.00,V,4500.0000,N,3400.0000,E,29.220,227.773,250625,,E,N*25
$GPGGA,120325.00,4500.0000,N,3400.0000,E,0,,5.5,669.505,M,,M,,*65
$GPRMC,120326.00,V,4500.0000,N,3400.0000,E,29.220,227.773,250625,,E,N*26
$GPGGA,120326.00,4500.0000,N,3400.0000,E,0,,5.5,669.505,M,,M,,*66
$GPRMC,120327.00,V,4500.0000,N,3400.0000,E,29.220,227.773,250625,,E,N*27
$GPGGA,120327.00,4500.0000,N,3400.0000,E,0,,5.5,669.505,M,,M,,*67
$GPRMC,120328.00,V,4500.0000,N,3400.0000,E,29.220,227.773,250625,,E,N*28
$GPGGA,120328.00,4500.0000,N,3400.0000,E,0,,5.5,669.505,M,,M,,*68
$GPRMC,120016.58,V,4500.0000,N,3400.0000,E,29.220,227.773,250625,,E,N*2B
$GPGGA,120016.58,4500.0000,N,3400.0000,E,0,,5.5,669.505,M,,M,,*6B
$GPRMC,120017.58,V,4500.0000,N,3400.0000,E,29.220,227.773,250625,,E,N*2A
$GPGGA,120017.58,4500.0000,N,3400.0000,E,0,,5.5,669.505,M,,M,,*6A
$GPRMC,120018.58,V,4500.0000,N,3400.0000,E,29.220,227.773,250625,,E,N*25
$GPGGA,120018.58,4500.0000,N,3400.0000,E,0,,5.5,669.505,M,,M,,*65
$GPRMC,120019.58,V,4500.0000,N,3400.0000,E,29.220,227.773,250625,,E,N*24
$GPGGA,120019.58,4500.0000,N,3400.0000,E,0,,5.5,669.505,M,,M,,*64
$GPRMC,120020.58,V,4500.0000,N,3400.0000,E,29.220,227.773,250625,,E,N*2E
$GPGGA,120020.58,4500.0000,N,3400.0000,E,0,,5.5,669.505,M,,M,,*6E
$GPRMC,120021.58,V,4500.0000,N,3400.0000,E,29.220,227.773,250625,,E,N*2F
$GPGGA,120021.58,4500.0000,N,3400.0000,E,0,,5.5,669.505,M,,M,,*6F
$GPRMC,120022.58,V,4500.0000,N,3400.0000,E,29.220,227.773,250625,,E,N*2C
$GPGGA,120022.58,4500.0000,N,3400.0000,E,0,,5.5,669.505,M,,M,,*6C
$GPRMC,120023.60,V,4500.0000,N,3400.0000,E,69.781,96.344,250625,,E,N*1E
$GPGGA,120023.60,4500.0000,N,3400.0000,E,0,6,1.8,423.495,M,,M,,*57
$GPRMC,120024.60,V,4500.0000,N,3400.0000,E,69.547,100.055,250625,,E,N*20
$GPGGA,120024.60,4500.0000,N,3400.0000,E,0,7,1.8,425.093,M,,M,,*59
$GPRMC,120025.60,V,4500.0000,N,3400.0000,E,69.894,105.253,250625,,E,N*27
$GPGGA,120025.60,4500.0000,N,3400.0000,E,0,7,1.8,429.654,M,,M,,*5D
$GSENSORSTARTTIME 20260913141341
$GSENSORDATAFREQUENCY 15 v2.1
$GSENSOR,-1026,44,-864,1789298021512
$GSENSOR,-1029,40,-864,1789298021577
$GSENSOR,-1026,40,-865,1789298021642
$GSENSOR,-1024,45,-863,1789298021707
$GSENSOR,-1027,42,-864,1789298021771
$GSENSOR,-1028,38,-861,1789298021836
$GSENSOR,-1025,44,-863,1789298021900
$GSENSOR,-1026,39,-862,1789298021965
$GSENSOR,-1026,38,-862,1789298022030
$GSENSOR,-1024,43,-861,1789298022094
$GSENSOR,-1027,41,-861,1789298022159
$GSENSOR,-1027,39,-861,1789298022223
$GSENSOR,-1025,42,-864,1789298022288
$GSENSOR,-1025,40,-863,1789298022353
$GSENSOR,-1026,39,-858,1789298022417
$GSENSOR,-1026,41,-859,1789298022482
$GSENSOR,-1026,42,-860,1789298022546
$GSENSOR,-1029,40,-862,1789298022611
$GSENSOR,-1028,35,-863,1789298022676
$GSENSOR,-1027,42,-863,1789298022740
$GSENSOR,-1028,40,-860,1789298022805
$GSENSOR,-1025,41,-859,1789298022869
$GSENSOR,-1024,41,-862,1789298022934
$GSENSOR,-1026,39,-860,1789298022998
$GSENSOR,-1028,37,-861,1789298023064
$GSENSOR,-1024,42,-863,1789298023129
$GSENSOR,-1022,41,-863,1789298023193
$GSENSOR,-1025,42,-866,1789298023259
$GSENSOR,-1026,41,-874,1789298023327
$GSENSOR,-1027,41,-877,1789298023391
$GSENSOR,-1027,36,-881,1789298023456
$GSENSOR,-1026,44,-882,1789298023520
$GSENSOR,-1025,41,-880,1789298023586
$GSENSOR,-1025,42,-875,1789298023653
$GSENSOR,-1023,44,-876,1789298023718
$GSENSOR,-1026,40,-870,1789298023783
$GSENSOR,-1027,41,-868,1789298023847
$GSENSOR,-1025,45,-868,1789298023912
$GSENSOR,-1026,41,-868,1789298023977
$GSENSOR,-1024,42,-871,1789298024042
$GSENSOR,-1028,45,-872,1789298024106
$GSENSOR,-1026,40,-873,1789298024171
$GSENSOR,-1028,36,-902,1789298024236
$GSENSOR,-1026,33,-934,1789298024300
$GSENSOR,-1020,41,-972,1789298024365
$GSENSOR,-1018,44,-1017,1789298024429
$GSENSOR,-1015,38,-1048,1789298024494
$GSENSOR,-1006,37,-1062,1789298024559
$GSENSOR,-1003,35,-1058,1789298024623
$GSENSOR,-1000,29,-1043,1789298024688
$GSENSOR,-1012,29,-1007,1789298024752
$GSENSOR,-1018,30,-983,1789298024817
$GSENSOR,-1025,34,-974,1789298024882
$GSENSOR,-1027,40,-969,1789298024946
$GSENSOR,-1010,48,-992,1789298025011
$GSENSOR,-1000,41,-1012,1789298025076
$GSENSOR,-991,32,-1020,1789298025140
$GSENSOR,-991,28,-1032,1789298025205
$GSENSOR,-1002,31,-1041,1789298025269
$GSENSORENDTIME 20260913141441
$GSENSOR,-1086,33,-789,1789286079752
$GSENSOR,-1094,36,-790,1789286079817
$GSENSOR,-1067,69,-783,1789286079881
$GSENSOR,-1043,67,-769,1789286079946
$GSENSOR,-1035,57,-770,1789286080010
$GSENSOR,-1041,49,-772,1789286080075
$GSENSOR,-1031,47,-768,1789286080142
$GSENSORENDTIME 20260913105440
$GSENSOR,-1038,32,-560,1788697450174
$GSENSOR,-1044,46,-561,1788697450239
$GSENSOR,-1042,60,-562,1788697450304
$GSENSOR,-1038,49,-564,1788697450369
$GSENSOR,-1044,43,-566,1788697450433
$GSENSOR,-1044,43,-562,1788697450498
$GSENSORENDTIME 20260906152410
$GSENSORENDTIME 20260826131338
$GSENSOR,-1031,-100,-777,1785567173185
$GSENSOR,-1036,-110,-768,1785567173252
$GSENSOR,-1042,-132,-767,1785567173319
$GSENSOR,-1042,-147,-761,1785567173386
$GSENSOR,-1026,-149,-765,1785567173453
$GSENSOR,-1031,-175,-768,1785567173518
$GSENSOR,-1015,-192,-766,1785567173585
$GSENSOR,-1014,-195,-763,1785567173650
$GSENSOR,-1006,-200,-756,1785567173715
$GSENSOR,-986,-197,-764,1785567173779
$GSENSOR,-992,-203,-760,1785567173844
$GSENSOR,-993,-202,-764,1785567173909
$GSENSOR,-997,-208,-766,1785567173973
$GSENSORENDTIME 20260801095254
$GSENSOR,-1028,65,-901,1784627456417
$GSENSOR,-1034,69,-912,1784627456482
$GSENSOR,-1031,56,-920,1784627456547
$GSENSOR,-1020,51,-918,1784627456611
$GSENSOR,-1024,40,-927,1784627456676
$GSENSOR,-1021,39,-916,1784627456741
$GSENSORENDTIME 20260721125056
$GSENSOR,-1067,-12,-1287,1784625431027
$GSENSOR,-1069,-16,-1300,1784625431092
$GSENSOR,-1050,-19,-1315,1784625431160
$GSENSOR,-1021,3,-1306,1784625431226
$GSENSOR,-1027,10,-1294,1784625431292
$GSENSOR,-1037,10,-1300,1784625431356
$GSENSOR,-1014,8,-1314,1784625431422
$GSENSOR,-1010,-4,-1320,1784625431486
$GSENSOR,-1024,6,-1317,1784625431551
$GSENSOR,-1031,15,-1307,1784625431615
$GSENSOR,-1039,16,-1304,1784625431681
$GSENSOR,-1029,-2,-1328,1784625431746
$GSENSOR,-1019,-5,-1328,1784625431810
$GSENSOR,-1001,-2,-1326,1784625431875
$GSENSOR,-1015,0,-1304,1784625431939
$GSENSOR,-1030,-6,-1308,1784625432005
$GSENSOR,-1053,9,-1308,1784625432070
$GSENSORENDTIME 20260721121712
