$GPSCAMTIME 20261006213216
$GPRMC,213216.69,V,3100.0000,N,12200.0000,E,0.000,0.000,061026,,E,N*16
$GPGGA,213216.69,3100.0000,N,12200.0000,E,0,,0.0,0.000,M,,M,,*65
$GPRMC,213217.68,V,3100.0000,N,12200.0000,E,0.000,0.000,061026,,E,N*16
$GPGGA,213217.68,3100.0000,N,12200.0000,E,0,,0.0,0.000,M,,M,,*65
$GPRMC,213218.68,V,3100.0000,N,12200.0000,E,0.000,0.000,061026,,E,N*19
$GPGGA,213218.68,3100.0000,N,12200.0000,E,0,,0.0,0.000,M,,M,,*6A
$GPRMC,213219.69,V,3100.0000,N,12200.0000,E,0.000,0.000,061026,,E,N*19
$GPGGA,213219.69,3100.0000,N,12200.0000,E,0,,0.0,0.000,M,,M,,*6A
$GPRMC,213220.69,V,3100.0000,N,12200.0000,E,0.000,0.000,061026,,E,N*13
$GPGGA,213220.69,3100.0000,N,12200.0000,E,0,,0.0,0.000,M,,M,,*60
$GPRMC,213221.68,V,3100.0000,N,12200.0000,E,0.000,0.000,061026,,E,N*13
$GPGGA,213221.68,3100.0000,N,12200.0000,E,0,,0.0,0.000,M,,M,,*60
$GPRMC,213222.68,V,3100.0000,N,12200.0000,E,0.000,0.000,061026,,E,N*10
$GPGGA,213222.68,3100.0000,N,12200.0000,E,0,,0.0,0.000,M,,M,,*63
$GPRMC,213223.69,V,3100.0000,N,12200.0000,E,0.000,0.000,061026,,E,N*10
$GPGGA,213223.69,3100.0000,N,12200.0000,E,0,,0.0,0.000,M,,M,,*63
$GPRMC,213224.69,V,3100.0000,N,12200.0000,E,0.000,0.000,061026,,E,N*17
$GPGGA,213224.69,3100.0000,N,12200.0000,E,0,,0.0,0.000,M,,M,,*64
$GSENSORSTARTTIME 20261006213216
$GSENSORDATAFREQUENCY 15 v2.1
$GSENSOR,-1027,81,-733,1791311536665
$GSENSOR,-1030,81,-727,1791311536731
$GSENSOR,-1032,80,-727,1791311536796
$GSENSOR,-1031,73,-729,1791311536860
$GSENSOR,-1027,65,-730,1791311536926
$GSENSOR,-1028,73,-734,1791311536991
$GSENSOR,-1029,82,-743,1791311537055
$GSENSOR,-1030,83,-750,1791311537120
$GSENSOR,-1032,75,-750,1791311537187
$GSENSOR,-1032,76,-747,1791311537253
$GSENSOR,-1031,78,-749,1791311537320
$GSENSOR,-1030,89,-762,1791311537387
$GSENSOR,-1026,91,-777,1791311537452
$GSENSOR,-1010,86,-786,1791311537516
$GSENSOR,-1022,46,-791,1791311537581
$GSENSOR,-1025,38,-751,1791311537646
$GSENSOR,-1028,24,-725,1791311537710
$GSENSOR,-1032,17,-711,1791311537775
$GSENSOR,-1040,25,-697,1791311537839
$GSENSOR,-1047,41,-672,1791311537904
$GSENSOR,-1055,53,-641,1791311537969
$GSENSOR,-1055,68,-624,1791311538033
$GSENSOR,-1059,68,-625,1791311538098
$GSENSOR,-1054,46,-635,1791311538162
$GSENSOR,-1039,23,-651,1791311538227
$GSENSOR,-1023,6,-681,1791311538291
$GSENSOR,-1019,-4,-703,1791311538356
$GSENSOR,-1010,11,-708,1791311538421
$GSENSOR,-1010,28,-695,1791311538487
$GSENSOR,-1023,41,-694,1791311538554
$GSENSOR,-1028,45,-697,1791311538619
$GSENSOR,-1036,26,-694,1791311538683
$GSENSOR,-1044,18,-687,1791311538748
$GSENSOR,-1037,20,-680,1791311538812
$GSENSOR,-1040,23,-678,1791311538877
$GSENSOR,-1039,32,-685,1791311538941
$GSENSOR,-1034,46,-691,1791311539008
$GSENSOR,-1036,39,-700,1791311539072
$GSENSOR,-1039,43,-708,1791311539138
$GSENSOR,-1034,36,-695,1791311539203
$GSENSOR,-1037,40,-681,1791311539269
$GSENSOR,-1040,49,-670,1791311539334
$GSENSOR,-1043,33,-676,1791311539399
$GSENSOR,-1037,22,-682,1791311539464
$GSENSOR,-1033,24,-676,1791311539529
$GSENSOR,-1031,39,-670,1791311539594
$GSENSOR,-1031,54,-667,1791311539659
$GSENSOR,-1030,75,-671,1791311539723
$GSENSOR,-1033,78,-679,1791311539788
$GSENSOR,-1031,76,-678,1791311539853
$GSENSOR,-1028,88,-677,1791311539917
$GSENSOR,-1032,75,-663,1791311539982
$GSENSOR,-1041,68,-659,1791311540046
$GSENSOR,-1043,71,-651,1791311540111
$GSENSOR,-1039,81,-638,1791311540175
$GSENSOR,-1034,92,-634,1791311540240
$GSENSOR,-1037,91,-626,1791311540305
$GSENSOR,-1043,93,-610,1791311540369
$GSENSOR,-1044,94,-604,1791311540434
$GSENSORENDTIME 20261006213225
$GPGGA,132545.00,4500.0000,N,3400.0000,E,1,18,1.0,265.391,M,,M,,*6D
$GPRMC,132546.00,A,4500.0000,N,3400.0000,E,29.858,330.063,061026,,E,A*3A
$GPGGA,132546.00,4500.0000,N,3400.0000,E,1,17,1.0,264.720,M,,M,,*69
$GPRMC,132547.00,A,4500.0000,N,3400.0000,E,30.785,329.547,061026,,E,A*30
$GPGGA,132547.00,4500.0000,N,3400.0000,E,1,17,1.0,264.143,M,,M,,*6C
$GPRMC,132548.00,A,4500.0000,N,3400.0000,E,32.359,330.362,061026,,E,A*35
$GPGGA,132548.00,4500.0000,N,3400.0000,E,1,19,0.9,263.816,M,,M,,*6F
$GPRMC,132549.00,A,4500.0000,N,3400.0000,E,33.114,329.886,061026,,E,A*3F
$GPGGA,132549.00,4500.0000,N,3400.0000,E,1,19,0.9,263.366,M,,M,,*6A
$GPRMC,132550.00,A,4500.0000,N,3400.0000,E,33.704,329.530,061026,,E,A*32
$GPGGA,132550.00,4500.0000,N,3400.0000,E,1,17,1.0,262.986,M,,M,,*63
$GPRMC,132551.00,A,4500.0000,N,3400.0000,E,33.928,329.535,061026,,E,A*34
$GPGGA,132551.00,4500.0000,N,3400.0000,E,1,19,0.9,262.174,M,,M,,*63
$GPRMC,132552.00,A,4500.0000,N,3400.0000,E,34.956,329.330,061026,,E,A*3F
$GPGGA,132552.00,4500.0000,N,3400.0000,E,1,18,0.9,261.755,M,,M,,*62
$GPRMC,132553.00,A,4500.0000,N,3400.0000,E,34.569,329.593,061026,,E,A*3A
$GPGGA,132553.00,4500.0000,N,3400.0000,E,1,19,0.9,261.193,M,,M,,*65
$GPRMC,132554.00,A,4500.0000,N,3400.0000,E,35.845,329.651,061026,,E,A*3C
$GPGGA,132554.00,4500.0000,N,3400.0000,E,1,19,0.9,260.301,M,,M,,*64
$GPRMC,132555.00,A,4500.0000,N,3400.0000,E,36.636,329.940,061026,,E,A*32
$GPGGA,132555.00,4500.0000,N,3400.0000,E,1,19,0.9,260.351,M,,M,,*69
$GPRMC,132556.00,A,4500.0000,N,3400.0000,E,35.922,329.504,061026,,E,A*3E
$GPGGA,132556.00,4500.0000,N,3400.0000,E,1,16,1.1,260.034,M,,M,,*66
$GPRMC,132557.00,A,4500.0000,N,3400.0000,E,37.177,329.512,061026,,E,A*3B
$GPGGA,132557.00,4500.0000,N,3400.0000,E,1,17,1.0,260.134,M,,M,,*6F
$GPRMC,132558.00,A,4500.0000,N,3400.0000,E,35.591,330.002,061026,,E,A*3F
$GPGGA,132558.00,4500.0000,N,3400.0000,E,1,19,0.9,260.233,M,,M,,*6B
$GPRMC,132559.00,A,4500.0000,N,3400.0000,E,34.934,329.616,061026,,E,A*3A
$GPGGA,132559.00,4500.0000,N,3400.0000,E,1,19,0.9,259.742,M,,M,,*6E
$GPRMC,132600.00,A,4500.0000,N,3400.0000,E,34.173,329.642,061026,,E,A*3A
$GPGGA,132600.00,4500.0000,N,3400.0000,E,1,18,0.9,260.061,M,,M,,*69
$GSENSORSTARTTIME 20261006162638
$GSENSORDATAFREQUENCY 15 v2.1
$GSENSOR,-1032,49,-763,1791293198022
$GSENSOR,-1029,54,-761,1791293198087
$GSENSOR,-1028,52,-762,1791293198155
$GSENSOR,-1029,52,-763,1791293198219
$GSENSOR,-1029,52,-765,1791293198284
$GSENSOR,-1030,50,-765,1791293198350
$GSENSOR,-1031,51,-764,1791293198417
$GSENSOR,-1028,52,-767,1791293198483
$GSENSOR,-1029,50,-765,1791293198547
$GSENSOR,-1029,50,-762,1791293198612
$GSENSOR,-1028,53,-763,1791293198677
$GSENSOR,-1032,52,-761,1791293198741
$GSENSOR,-1026,54,-761,1791293198806
$GSENSOR,-1027,52,-760,1791293198871
$GSENSOR,-1030,51,-762,1791293198935
$GSENSOR,-1028,53,-765,1791293199000
$GSENSOR,-1032,50,-761,1791293199065
$GSENSOR,-1030,51,-765,1791293199130
$GSENSOR,-1029,53,-763,1791293199194
$GSENSOR,-1033,47,-762,1791293199259
$GSENSOR,-1030,45,-764,1791293199323
$GSENSOR,-1030,48,-763,1791293199388
$GSENSOR,-1032,44,-761,1791293199453
$GSENSOR,-1027,46,-762,1791293199517
$GSENSOR,-1031,48,-762,1791293199582
$GSENSOR,-1034,44,-763,1791293199647
$GSENSOR,-1032,46,-763,1791293199712
$GSENSOR,-1031,46,-767,1791293199776
$GSENSOR,-1032,43,-764,1791293199841
$GSENSOR,-1030,45,-761,1791293199905
$GSENSOR,-1033,44,-762,1791293199970
$GSENSOR,-1029,48,-763,1791293200035
$GSENSOR,-1031,50,-765,1791293200099
$GSENSOR,-1031,48,-762,1791293200164
$GSENSOR,-1030,50,-763,1791293200228
$GSENSOR,-1026,53,-764,1791293200293
$GSENSOR,-1028,50,-764,1791293200358
$GSENSOR,-1029,52,-764,1791293200422
$GSENSOR,-1031,54,-765,1791293200487
$GSENSOR,-1031,51,-762,1791293200551
$GSENSOR,-1030,52,-761,1791293200616
$GSENSOR,-1028,54,-763,1791293200681
$GSENSOR,-1029,51,-762,1791293200745
$GSENSOR,-1029,52,-762,1791293200810
$GSENSOR,-1030,54,-761,1791293200874
$GSENSOR,-1030,50,-762,1791293200940
$GSENSOR,-1031,52,-762,1791293201004
$GSENSOR,-1028,54,-762,1791293201070
$GSENSOR,-1031,49,-762,1791293201138
$GSENSOR,-1029,53,-765,1791293201203
$GSENSOR,-1032,47,-762,1791293201270
$GSENSOR,-1028,48,-764,1791293201336
$GSENSOR,-1027,49,-763,1791293201404
$GSENSOR,-1029,45,-761,1791293201469
$GSENSOR,-1025,45,-762,1791293201533
$GSENSOR,-1025,44,-765,1791293201598
$GSENSOR,-1030,41,-762,1791293201663
$GSENSOR,-1027,45,-763,1791293201727
$GSENSOR,-1026,47,-763,1791293201792
$GSENSORENDTIME 20261006162737
$GSENSOR,-1033,-2,-784,1789302334633
$GSENSOR,-1019,2,-780,1789302334697
$GSENSOR,-1035,0,-776,1789302334762
$GSENSOR,-1024,2,-781,1789302334827
$GSENSOR,-1041,0,-785,1789302334891
$GSENSORENDTIME 20260913152534
$GSENSOR,-1041,232,-735,1785567113042
$GSENSOR,-1049,255,-735,1785567113108
$GSENSOR,-1047,239,-745,1785567113175
$GSENSOR,-1036,231,-740,1785567113241
$GSENSOR,-1031,231,-750,1785567113307
$GSENSOR,-1055,257,-734,1785567113377
$GSENSOR,-1071,258,-736,1785567113441
$GSENSOR,-1050,299,-744,1785567113506
$GSENSOR,-1046,265,-752,1785567113570
$GSENSOR,-1041,253,-756,1785567113635
$GSENSOR,-1044,280,-766,1785567113700
$GSENSOR,-1041,296,-767,1785567113764
$GSENSOR,-1027,280,-765,1785567113830
$GSENSOR,-999,313,-767,1785567113897
$GSENSORENDTIME 20260801095153
$GSENSOR,-990,8,-1071,1784627096445
$GSENSOR,-992,5,-1082,1784627096510
$GSENSOR,-1002,0,-1093,1784627096574
$GSENSOR,-988,9,-1091,1784627096639
$GSENSOR,-996,0,-1085,1784627096707
$GSENSOR,-1019,25,-1083,1784627096774
$GSENSORENDTIME 20260721124456
$GSENSOR,-1019,21,-1147,1784625071726
$GSENSOR,-1033,35,-1129,1784625071790
$GSENSOR,-1053,1,-1143,1784625071855
$GSENSOR,-1056,-3,-1159,1784625071919
$GSENSOR,-1060,24,-1172,1784625071984
$GSENSORENDTIME 20260721121112
